BADR-5                  
1 36592U 10025A   26065.51544317  .00000141  00000+0  00000+0 0  9996
2 36592   0.0404 126.0454 0001650 273.4325 336.3196  1.00277241 52186
COMS 1                  
1 36744U 10032A   26065.38725536 -.00000347  00000+0  00000+0 0  9991
2 36744   4.5407  76.8433 0001247 292.8421  62.0076  1.00271769 50053
ARABSAT-5A              
1 36745U 10032B   26065.80152340  .00000150  00000+0  00000+0 0  9997
2 36745   0.0768  54.7443 0002910 318.8708 109.9239  1.00271890 57623
ECHOSTAR 15             
1 36792U 10034A   26065.55807565 -.00000004  00000+0  00000+0 0  9998
2 36792   0.0466 278.3529 0002082  57.9754 270.0323  1.00271441 57290
BEIDOU-2 IGSO-1         
1 36828U 10036A   26064.71564830 -.00000126  00000+0  00000+0 0  9997
2 36828  54.2927 163.8986 0054017 218.9744 143.1840  1.00252203 57065
NILESAT 201             
1 36830U 10037A   26065.36628918 -.00000062  00000+0  00000+0 0  9990
2 36830   0.0174 170.2247 0003066 188.0708 290.6287  1.00272931 57342
RASCOM-QAF 1R           
1 36831U 10037B   26065.79615003  .00000015  00000+0  00000+0 0  9996
2 36831   0.0331 117.9135 0006551 220.7216 115.3683  1.00271683 57270
AEHF-1 (USA 214)        
1 36868U 10039A   26065.58762912  .00000146  00000+0  00000+0 0  9992
2 36868   7.9666  69.3827 0004420 277.1647  59.3482  1.00266366 52622
XM-5                    
1 37185U 10053A   26065.55876898 -.00000027  00000+0  00000+0 0  9996
2 37185   0.0668 273.7447 0003569 252.7855  83.6924  1.00270940 56452
BSAT-3B                 
1 37207U 10056B   26065.63045374 -.00000354  00000+0  00000+0 0  9993
2 37207   0.0794 246.3173 0001775  35.5753 219.2506  1.00272992 51075
BEIDOU-2 G4             
1 37210U 10057A   26065.82717685 -.00000114  00000+0  00000+0 0  9994
2 37210   3.3928  69.5393 0008762 211.9137 340.8851  1.00272420 56268
SKYTERRA 1              
1 37218U 10061A   26065.56145567 -.00000121  00000+0  00000+0 0  9990
2 37218   4.9068  50.9124 0001550 303.7078 270.4520  1.00272913 56163
HYLAS 1                 
1 37237U 10065A   26065.79606338  .00000071  00000+0  00000+0 0  9991
2 37237   5.3835  74.2755 0003309 332.6761  46.7309  1.00650856  5860
INTELSAT 17 (IS-17)     
1 37238U 10065B   26065.59464914 -.00000005  00000+0  00000+0 0  9990
2 37238   0.0162 180.1730 0002485 170.8958  93.3048  1.00272934 52216
BEIDOU-2 IGSO-2         
1 37256U 10068A   26063.55016868 -.00000178  00000+0  00000+0 0  9999
2 37256  47.7317 273.1244 0047330 213.1251 341.1802  1.00258965 55745
EUTELSAT KA-SAT 9A      
1 37258U 10069A   26065.36940919  .00000057  00000+0  00000+0 0  9991
2 37258   0.0575 355.3085 0002599 151.5415 159.2287  1.00271346 42970
HISPASAT 30W-5          
1 37264U 10070A   26065.61671611 -.00000220  00000+0  00000+0 0  9991
2 37264   0.0160 149.8564 0003358 216.7864 349.6986  1.00273296 52159
